SL-12 R/B(2)            
1 15772U 85042D   26162.68471125 -.00000035  00000+0  56622-5 0  9996
2 15772  71.1082 249.1414 0035998 336.1213 133.2351 14.22004905127758
SL-14 R/B               
1 15945U 85069B   26162.64950719  .00000412  00000+0  43705-4 0  9999
2 15945  82.5267 296.5742 0017447 238.7044 121.2464 14.86511386186796
SL-16 R/B               
1 16182U 85097B   26162.68048683 -.00000224  00000+0 -88341-4 0  9994
2 16182  71.0037 302.6713 0005487 122.7238 253.8111 14.16611626100544
SL-14 R/B               
1 16496U 86006B   26162.53349309  .00000523  00000+0  52884-4 0  9999
2 16496  82.5261 171.4338 0075352 322.5279  37.0697 14.86939992163159
COSMOS 1743             
1 16719U 86034A   26162.52612650  .00045185  00000+0  43329-3 0  9995
2 16719  82.5272 334.7502 0003724 297.9472  62.1411 15.66440250194903
SL-14 R/B               
1 16792U 86046B   26162.63007485  .00000340  00000+0  36386-4 0  9995
2 16792  82.4816 351.4272 0021588 278.1802  81.6965 14.85667365140351
SL-14 R/B               
1 16882U 86055B   26162.75859132  .00000345  00000+0  36845-4 0  9997
2 16882  82.5209  38.2371 0019547  25.2886  43.1088 14.85719477133334
AJISAI (EGS)            
1 16908U 86061A   26162.83495971 -.00000078  00000+0  13950-3 0  9994
2 16908  50.0062 163.8533 0011244 167.0105 261.2748 12.44516805479725
SL-14 R/B               
1 17567U 87024B   26162.62936806  .00000348  00000+0  36783-4 0  9999
2 17567  82.5281   4.4750 0017083 313.1100  46.8687 14.86209584102089
COSMOS 1833             
1 17589U 87027A   26162.65747965  .00000318  00000+0  19566-3 0  9991
2 17589  70.9167 128.4915 0022664  64.3044 296.0414 14.13045831 23598
SL-16 R/B               
1 17590U 87027B   26162.71055821 -.00000048  00000+0 -15339-6 0  9992
2 17590  71.0034  78.3692 0006299 318.7677  41.2970 14.17172642 28669
SL-14 R/B               
1 17912U 87038B   26162.60524730  .00000314  00000+0  33494-4 0  9994
2 17912  82.5012 208.3301 0018405 210.1729 149.8429 14.85442014 93177
COSMOS 1844             
1 17973U 87041A   26162.52072506 -.00000169  00000+0 -62287-4 0  9997
2 17973  70.8977 196.2601 0033151 243.7540 116.0173 14.14569188 16856
SL-14 R/B               
1 18153U 87055B   26162.70045390  .00000358  00000+0  38261-4 0  9997
2 18153  82.4996 260.4011 0021987  64.7787 295.5705 14.85707392 83895
COSMOS 1867             
1 18187U 87060A   26162.40462919 -.00000066  00000+0  12765-4 0  9995
2 18187  65.0116  44.2533 0016410 282.1424  77.7822 14.31515147 33351
SL-14 R/B               
1 18749U 88001B   26162.56736727  .00000372  00000+0  40138-4 0  9997
2 18749  82.5129 107.0604 0016540 289.8975  70.0458 14.85605616 55961
COSMOS 1933             
1 18958U 88020A   26162.50292749  .00002849  00000+0  13599-3 0  9996
2 18958  82.5116 158.0641 0002880 208.9825 151.1250 15.18677988 64468
SL-3 R/B                
1 19046U 88032B   26162.84785743  .00003692  00000+0  16952-3 0  9999
2 19046  97.5248 145.8938 0023635 265.0727  94.7809 15.20800340 66410
SL-16 R/B               
1 19120U 88039B   26162.62481028 -.00000078  00000+0 -13907-4 0  9999
2 19120  71.0143 229.9198 0022568 201.3504 158.6682 14.19629562971715
COSMOS 1953             
1 19210U 88050A   26162.78641844  .00007098  00000+0  24359-3 0  9992
2 19210  82.5085  63.4800 0011740 142.9494 217.2559 15.29902402 52169
SL-8 R/B                
1 19257U 88053B   26162.87183352  .00000147  00000+0  56013-4 0  9992
2 19257  74.0479 298.8553 0019168  96.1593  21.4456 14.38965458990143
COSMOS 1975             
1 19573U 88093A   26162.65806226  .00006547  00000+0  22921-3 0  9995
2 19573  82.5202  23.2641 0010738 190.8843 169.2166 15.29256651 33768
SL-14 R/B               
1 19574U 88093B   26162.67402850  .00000395  00000+0  42453-4 0  9991
2 19574  82.5307 313.8210 0022191  87.4376 286.8018 14.85737643 14973
SL-16 R/B               
1 19650U 88102B   26162.84893917 -.00000222  00000+0 -87746-4 0  9999
2 19650  71.0004 313.3717 0016006 232.9308 127.0352 14.16165879940225
INTERCOSMOS 24          
1 20261U 89080A   26162.69516753  .00000816  00000+0  23096-3 0  9992
2 20261  82.6071  43.2182 1188403  74.6372 298.2671 12.59653024678633
SL-14 R/B               
1 20262U 89080C   26162.56255462  .00000333  00000+0  99290-4 0  9990
2 20262  82.5925 112.9210 1229054 330.2731  23.3619 12.50567357671888
DELTA 1 R/B             
1 20323U 89089B   26162.56348469  .00000292  00000+0  80821-4 0  9991
2 20323  97.0638 355.0216 0068740 184.7105 175.3454 14.50727638909345
ARIANE 40 R/B           
1 20443U 90005H   26162.69408860  .00000204  00000+0  78178-4 0  9995
2 20443  98.2959 220.4806 0008823 283.3599  76.6606 14.39924562906336
DELTA 2 R/B(1)          
1 20453U 90008B   26162.58910468  .00082334  00000+0  62951-3 0  9994
2 20453  35.6002 273.0862 0066140  61.0477 299.6874 15.67947352940829
COSMOS 2058             
1 20465U 90010A   26162.51020962  .00003433  00000+0  19828-3 0  9992
2 20465  82.4661 314.9538 0009952  20.7009 339.4622 15.11973969956417
SL-14 R/B               
1 20466U 90010B   26162.50264861  .00000330  00000+0  37053-4 0  9994
2 20466  82.5016 179.2835 0019597 355.3900   4.7131 14.83642626942398
